NORAD_CAT_ID,OBJECT_NAME,OBJECT_TYPE,EPOCH,MEAN_MOTION,ECCENTRICITY,INCLINATION,RA_OF_ASC_NODE,ARG_OF_PERICENTER,MEAN_ANOMALY,BSTAR,MEAN_MOTION_DOT,MEAN_MOTION_DDOT,TLE_LINE0,TLE_LINE1,TLE_LINE2,SEMIMAJOR_AXIS,PERIOD,APOGEE,PERIGEE,DECAYED
53179.0,STARLINK-4276,PAYLOAD,2023-09-14 02:53:16,15.08829989,0.0001415,53.2168,237.9559,89.2834,270.8321,-7.7606e-05,-1.522e-05,0.0,0 STARLINK-4276,1 53179U 22083AZ  23257.12032624 -.00001522  00000-0 -77606-4 0  9991,2 53179  53.2168 237.9559 0001415  89.2834 270.8321 15.08829989 65549,6917.911,95.438,540.755,538.797,0.0
53179.0,STARLINK-4276,PAYLOAD,2023-09-14 09:14:48,15.08831483,0.0001416,53.2167,236.7658,86.7421,273.3733,-6.5999e-05,-1.338e-05,0.0,0 STARLINK-4276,1 53179U 22083AZ  23257.38528628 -.00001338  00000-0 -65999-4 0  9990,2 53179  53.2167 236.7658 0001416  86.7421 273.3733 15.08831483 64940,6917.906,95.438,540.751,538.792,0.0
53179.0,STARLINK-4276,PAYLOAD,2023-09-14 15:36:21,15.08826741,0.0001455,53.217,235.5758,87.9555,272.1604,-6.3735e-05,-1.302e-05,0.0,0 STARLINK-4276,1 53179U 22083AZ  23257.65025121 -.00001302  00000-0 -63735-4 0  9997,2 53179  53.2170 235.5758 0001455  87.9555 272.1604 15.08826741 64985,6917.921,95.438,540.792,538.779,0.0
53179.0,STARLINK-4276,PAYLOAD,2023-09-15 04:19:26,15.08835023,0.0001416,53.2166,233.196,90.2645,269.8509,-3.7787e-05,-8.89e-06,0.0,0 STARLINK-4276,1 53179U 22083AZ  23258.18016967 -.00000889  00000-0 -37787-4 0  9991,2 53179  53.2166 233.1960 0001416  90.2645 269.8509 15.08835023 65704,6917.896,95.438,540.74,538.781,0.0
53179.0,STARLINK-4276,PAYLOAD,2023-09-15 07:30:12,15.08837779,0.0001421,53.2168,232.6003,86.9432,273.1723,-2.5343e-05,-6.91e-06,0.0,0 STARLINK-4276,1 53179U 22083AZ  23258.31264831 -.00000691  00000-0 -25343-4 0  9997,2 53179  53.2168 232.6003 0001421  86.9432 273.1723 15.08837779 65087,6917.887,95.438,540.735,538.769,0.0
53179.0,STARLINK-4276,PAYLOAD,2023-09-15 15:27:08,15.08843206,0.0001423,53.2169,231.1147,91.6056,268.5099,4.9785e-05,5.05e-06,0.0,0 STARLINK-4276,1 53179U 22083AZ  23258.64384287  .00000505  00000-0  49785-4 0  9999,2 53179  53.2169 231.1147 0001423  91.6056 268.5099 15.08843206 65770,6917.871,95.437,540.72,538.751,0.0
53179.0,STARLINK-4276,PAYLOAD,2023-09-16 07:20:58,15.08850411,0.0001427,53.2164,228.1409,91.2232,268.8923,0.00029602,4.428e-05,0.0,0 STARLINK-4276,1 53179U 22083AZ  23259.30623429  .00004428  00000-0  29602-3 0  9990,2 53179  53.2164 228.1409 0001427  91.2232 268.8923 15.08850411 65874,6917.849,95.437,540.701,538.726,0.0
53179.0,STARLINK-4276,PAYLOAD,2023-09-16 15:17:55,15.08840641,0.0001583,53.2181,226.6524,85.1667,274.9506,0.00018564,2.668e-05,0.0,0 STARLINK-4276,1 53179U 22083AZ  23259.63744378  .00002668  00000-0  18564-3 0  9992,2 53179  53.2181 226.6524 0001583  85.1667 274.9506 15.08840641 65926,6917.878,95.438,540.839,538.648,0.0
53179.0,STARLINK-4276,PAYLOAD,2023-09-17 02:25:37,15.08837362,0.0001602,53.2172,224.5704,89.1093,271.0082,0.00010565,1.394e-05,0.0,0 STARLINK-4276,1 53179U 22083AZ  23260.10112843  .00001394  00000-0  10565-3 0  9990,2 53179  53.2172 224.5704 0001602  89.1093 271.0082 15.08837362 65992,6917.888,95.438,540.862,538.645,0.0
53179.0,STARLINK-4276,PAYLOAD,2023-09-17 04:01:00,15.08843079,0.0001464,53.2169,224.2717,95.7593,264.3567,9.803e-05,1.273e-05,0.0,0 STARLINK-4276,1 53179U 22083AZ  23260.16736581  .00001273  00000-0  98030-4 0  9997,2 53179  53.2169 224.2717 0001464  95.7593 264.3567 15.08843079 65369,6917.871,95.437,540.749,538.723,0.0
53179.0,STARLINK-4276,PAYLOAD,2023-09-17 15:08:41,15.08848411,0.0001506,53.2171,222.1926,91.168,268.9485,0.00011801,1.591e-05,0.0,0 STARLINK-4276,1 53179U 22083AZ  23260.63104162  .00001591  00000-0  11801-3 0  9996,2 53179  53.2171 222.1926 0001506  91.1680 268.9485 15.08848411 66078,6917.855,95.437,540.762,538.678,0.0
53179.0,STARLINK-4276,PAYLOAD,2023-09-18 07:02:32,15.08856337,0.0001449,53.2159,219.219,96.6102,263.5055,0.00011206,1.497e-05,0.0,0 STARLINK-4276,1 53179U 22083AZ  23261.29343392  .00001497  00000-0  11206-3 0  9993,2 53179  53.2159 219.2190 0001449  96.6102 263.5055 15.08856337 65539,6917.83,95.437,540.698,538.693,0.0
53179.0,STARLINK-4276,PAYLOAD,2023-09-19 02:07:11,15.08836017,0.0001419,53.2159,215.65,100.223,259.8922,0.00049794,7.645e-05,0.0,0 STARLINK-4276,1 53179U 22083AZ  23262.08832409  .00007645  00000-0  49794-3 0  9997,2 53179  53.2159 215.6500 0001419 100.2230 259.8922 15.08836017 66293,6917.893,95.438,540.739,538.776,0.0
53179.0,STARLINK-4276,PAYLOAD,2023-09-19 06:53:19,15.08857442,0.0001502,53.2161,214.7578,102.6356,257.4804,0.00030247,4.531e-05,0.0,0 STARLINK-4276,1 53179U 22083AZ  23262.28703091  .00004531  00000-0  30247-3 0  9997,2 53179  53.2161 214.7578 0001502 102.6356 257.4804 15.08857442 66321,6917.827,95.436,540.731,538.653,0.0
53179.0,STARLINK-4276,PAYLOAD,2023-09-20 01:57:57,15.08837951,0.0001594,53.2163,211.1897,105.0702,255.0467,-5.3222e-05,-1.135e-05,0.0,0 STARLINK-4276,1 53179U 22083AZ  23263.08191960 -.00001135  00000-0 -53222-4 0  9990,2 53179  53.2163 211.1897 0001594 105.0702 255.0467 15.08837951 66446,6917.887,95.438,540.854,538.649,0.0
53179.0,STARLINK-4276,PAYLOAD,2023-09-20 13:05:39,15.08834834,0.0001483,53.2163,209.1091,94.2287,265.8875,-0.00011517,-2.12e-05,0.0,0 STARLINK-4276,1 53179U 22083AZ  23263.54560184 -.00002120  00000-0 -11517-3 0  9994,2 53179  53.2163 209.1091 0001483  94.2287 265.8875 15.08834834 65878,6917.896,95.438,540.787,538.735,0.0
53179.0,STARLINK-4276,PAYLOAD,2023-09-21 04:59:31,15.08839872,0.0001446,53.2169,206.1387,94.5142,265.6015,1.2549e-06,-2.68e-06,0.0,0 STARLINK-4276,1 53179U 22083AZ  23264.20800336 -.00000268  00000-0  12549-5 0  9992,2 53179  53.2169 206.1387 0001446  94.5142 265.6015 15.08839872 66615,6917.881,95.438,540.746,538.745,0.0
53179.0,STARLINK-4276,PAYLOAD,2023-09-22 04:50:18,15.08846972,0.0001299,53.2161,201.6778,83.889,276.225,0.00033039,4.975e-05,0.0,0 STARLINK-4276,1 53179U 22083AZ  23265.20160476  .00004975  00000-0  33039-3 0  9990,2 53179  53.2161 201.6778 0001299  83.8890 276.2250 15.08846972 66122,6917.859,95.437,540.623,538.825,0.0
53179.0,STARLINK-4276,PAYLOAD,2023-09-23 03:05:42,15.08847836,0.0001299,53.2159,197.5148,87.069,273.0451,0.00018865,2.716e-05,0.0,0 STARLINK-4276,1 53179U 22083AZ  23266.12896412  .00002716  00000-0  18865-3 0  9999,2 53179  53.2159 197.5148 0001299  87.0690 273.0451 15.08847836 66901,6917.856,95.437,540.62,538.823,0.0
53179.0,STARLINK-4276,PAYLOAD,2023-09-23 04:41:05,15.08848738,0.0001294,53.216,197.2174,84.8884,275.2256,0.00019147,2.761e-05,0.0,0 STARLINK-4276,1 53179U 22083AZ  23266.19520378  .00002761  00000-0  19147-3 0  9995,2 53179  53.2160 197.2174 0001294  84.8884 275.2256 15.08848738 66273,6917.854,95.437,540.614,538.824,0.0
53179.0,STARLINK-4276,PAYLOAD,2023-09-24 02:56:29,15.08845708,0.0001437,53.2162,193.0529,80.5673,279.5482,4.8443e-05,4.83e-06,0.0,0 STARLINK-4276,1 53179U 22083AZ  23267.12256518  .00000483  00000-0  48443-4 0  9992,2 53179  53.2162 193.0529 0001437  80.5673 279.5482 15.08845708 67050,6917.863,95.437,540.722,538.734,0.0
53179.0,STARLINK-4276,PAYLOAD,2023-09-24 04:31:52,15.08846657,0.0001405,53.2162,192.7552,83.6788,276.4364,5.7001e-05,6.19e-06,0.0,0 STARLINK-4276,1 53179U 22083AZ  23267.18880434  .00000619  00000-0  57001-4 0  9999,2 53179  53.2162 192.7552 0001405  83.6788 276.4364 15.08846657 66427,6917.86,95.437,540.697,538.753,0.0
53179.0,STARLINK-4276,PAYLOAD,2023-09-25 01:11:53,15.08842994,0.0001654,53.2167,188.8895,81.3143,278.8036,7.7178e-05,9.41e-06,0.0,0 STARLINK-4276,1 53179U 22083AZ  23268.04992852  .00000941  00000-0  77178-4 0  9998,2 53179  53.2167 188.8895 0001654  81.3143 278.8036 15.08842994 67191,6917.871,95.437,540.88,538.592,0.0
53179.0,STARLINK-4276,PAYLOAD,2023-09-25 12:19:35,15.08852299,0.0001457,53.2151,186.8076,96.0714,264.0444,0.00036861,5.585e-05,0.0,0 STARLINK-4276,1 53179U 22083AZ  23268.51360347  .00005585  00000-0  36861-3 0  9990,2 53179  53.2151 186.8076 0001457  96.0714 264.0444 15.08852299 66627,6917.843,95.437,540.716,538.7,0.0
53179.0,STARLINK-4276,PAYLOAD,2023-09-25 21:51:53,15.0885995,0.0001525,53.215,185.0232,103.1313,256.985,0.00048621,7.463e-05,0.0,0 STARLINK-4276,1 53179U 22083AZ  23268.91103996  .00007463  00000-0  48621-3 0  9993,2 53179  53.2150 185.0232 0001525 103.1313 256.9850 15.08859950 66680,6917.819,95.436,540.739,538.629,0.0
53179.0,STARLINK-4276,PAYLOAD,2023-09-26 01:02:39,15.08867802,0.0001583,53.217,184.4286,95.0258,265.0914,0.00084234,0.00013153,0.0,0 STARLINK-4276,1 53179U 22083AZ  23269.04351666  .00013153  00000-0  84234-3 0  9990,2 53179  53.2170 184.4286 0001583  95.0258 265.0914 15.08867802 67346,6917.795,95.436,540.755,538.565,0.0
53179.0,STARLINK-4276,PAYLOAD,2023-09-26 18:31:54,15.08841588,0.0001371,53.2157,181.1563,85.7767,274.3382,-1.1306e-05,-4.68e-06,0.0,0 STARLINK-4276,1 53179U 22083AZ  23269.77216341 -.00000468  00000-0 -11306-4 0  9998,2 53179  53.2157 181.1563 0001371  85.7767 274.3382 15.08841588 67456,6917.876,95.437,540.689,538.792,0.0
53179.0,STARLINK-4276,PAYLOAD,2023-09-26 21:42:41,15.08835322,0.0001343,53.2167,180.5605,92.1432,267.9714,-0.0001469,-2.625e-05,0.0,0 STARLINK-4276,1 53179U 22083AZ  23269.90464477 -.00002625  00000-0 -14690-3 0  9993,2 53179  53.2167 180.5605 0001343  92.1432 267.9714 15.08835322 66834,6917.895,95.438,540.689,538.831,0.0
53179.0,STARLINK-4276,PAYLOAD,2023-09-27 00:53:27,15.08831915,0.0001257,53.2163,179.9662,79.5719,280.5415,-0.00015386,-2.735e-05,0.0,0 STARLINK-4276,1 53179U 22083AZ  23270.03712665 -.00002735  00000-0 -15386-3 0  9999,2 53179  53.2163 179.9662 0001257  79.5719 280.5415 15.08831915 67492,6917.905,95.438,540.64,538.901,0.0
53179.0,STARLINK-4276,PAYLOAD,2023-09-27 04:04:14,15.08832868,0.000126,53.2164,179.3718,80.3519,279.7616,-0.00012983,-2.353e-05,0.0,0 STARLINK-4276,1 53179U 22083AZ  23270.16960790 -.00002353  00000-0 -12983-3 0  9993,2 53179  53.2164 179.3718 0001260  80.3519 279.7616 15.08832868 66873,6917.902,95.438,540.639,538.896,0.0
